[{"OBJECT_NAME":"QIANFAN-61","OBJECT_ID":"2025-016G","EPOCH":"2026-03-09T21:53:14.897472","MEAN_MOTION":13.51009833,"ECCENTRICITY":0.001688,"INCLINATION":88.9734,"RA_OF_ASC_NODE":94.2582,"ARG_OF_PERICENTER":91.6936,"MEAN_ANOMALY":268.6149,"EPHEMERIS_TYPE":0,"CLASSIFICATION_TYPE":"U","NORAD_CAT_ID":62791,"ELEMENT_SET_NO":999,"REV_AT_EPOCH":5901,"BSTAR":0.0013981772,"MEAN_MOTION_DOT":9.16e-6,"MEAN_MOTION_DDOT":0},{"OBJECT_NAME":"THOR ABLESTAR DEB","OBJECT_ID":"1963-049D","EPOCH":"2026-03-09T10:26:52.220832","MEAN_MOTION":13.56569562,"ECCENTRICITY":0.00265749,"INCLINATION":89.9102,"RA_OF_ASC_NODE":73.9025,"ARG_OF_PERICENTER":356.1319,"MEAN_ANOMALY":164.7479,"EPHEMERIS_TYPE":0,"CLASSIFICATION_TYPE":"U","NORAD_CAT_ID":706,"ELEMENT_SET_NO":999,"REV_AT_EPOCH":6978,"BSTAR":0.00042664963,"MEAN_MOTION_DOT":3.11e-6,"MEAN_MOTION_DDOT":0}]
